{
    "links": {
        "self": "http://www.neowsapp.com/rest/v1/neo/3720549?api_key=iIulBulltgU6a56xZRHN4H3l9WmuAYTsLGpBGhQ2"
    },
    "id": "3720549",
    "neo_reference_id": "3720549",
    "name": "(2015 KT154)",
    "designation": "2015 KT154",
    "nasa_jpl_url": "http://ssd.jpl.nasa.gov/sbdb.cgi?sstr=3720549",
    "absolute_magnitude_h": 24.7,
    "estimated_diameter": {
        "kilometers": {
            "estimated_diameter_min": 0.0305179233,
            "estimated_diameter_max": 0.0682401509
        },
        "meters": {
            "estimated_diameter_min": 30.5179232594,
            "estimated_diameter_max": 68.2401509401
        },
        "miles": {
            "estimated_diameter_min": 0.0189629525,
            "estimated_diameter_max": 0.0424024508
        },
        "feet": {
            "estimated_diameter_min": 100.1244233463,
            "estimated_diameter_max": 223.8850168104
        }
    },
    "is_potentially_hazardous_asteroid": false,
    "close_approach_data": [
        {
            "close_approach_date": "2015-05-24",
            "close_approach_date_full": "2015-May-24 15:03",
            "epoch_date_close_approach": 1432479780000,
            "relative_velocity": {
                "kilometers_per_second": "13.2459644711",
                "kilometers_per_hour": "47685.4720958322",
                "miles_per_hour": "29629.8979253242"
            },
            "miss_distance": {
                "astronomical": "0.1011328568",
                "lunar": "39.3406812952",
                "kilometers": "15129259.964295016",
                "miles": "9400886.2169265808"
            },
            "orbiting_body": "Earth"
        }
    ],
    "orbital_data": {
        "orbit_id": "3",
        "orbit_determination_date": "2017-04-06 08:33:22",
        "first_observation_date": "2015-05-26",
        "last_observation_date": "2015-05-28",
        "data_arc_in_days": 2,
        "observations_used": 23,
        "orbit_uncertainty": "9",
        "minimum_orbit_intersection": ".100948",
        "jupiter_tisserand_invariant": "4.141",
        "epoch_osculation": "2457169.5",
        "eccentricity": ".3265262565413848",
        "semi_major_axis": "1.641587475971618",
        "inclination": "23.85205577826402",
        "ascending_node_longitude": "240.6777996617149",
        "orbital_period": "768.2356770637183",
        "perihelion_distance": "1.105566062657385",
        "perihelion_argument": "14.86870079351839",
        "aphelion_distance": "2.177608889285851",
        "perihelion_time": "2457180.313341793271",
        "mean_anomaly": "354.9328010117204",
        "mean_motion": ".4686061982645219",
        "equinox": "J2000",
        "orbit_class": {
            "orbit_class_type": "AMO",
            "orbit_class_description": "Near-Earth asteroid orbits similar to that of 1221 Amor",
            "orbit_class_range": "1.017 AU < q (perihelion) < 1.3 AU"
        }
    },
    "is_sentry_object": false
}